NORAD_CAT_ID,OBJECT_NAME,OBJECT_TYPE,EPOCH,MEAN_MOTION,ECCENTRICITY,INCLINATION,RA_OF_ASC_NODE,ARG_OF_PERICENTER,MEAN_ANOMALY,BSTAR,MEAN_MOTION_DOT,MEAN_MOTION_DDOT,TLE_LINE0,TLE_LINE1,TLE_LINE2,SEMIMAJOR_AXIS,PERIOD,APOGEE,PERIGEE,DECAYED
54799.0,STARLINK-5421,PAYLOAD,2023-02-22 22:00:00,15.64404076,0.0001169,53.2142,334.1687,95.329,109.1429,-0.010703,-0.00948504,0.0,0 STARLINK-5421,1 54799U 22175AT  23053.91667824 -.00948504  00000-0 -10703-1 0  9991,2 54799  53.2142 334.1687 0001169  95.3290 109.1429 15.64404076 10295,6753.09,92.048,375.745,374.166,0.0
54799.0,STARLINK-5421,PAYLOAD,2023-02-23 14:00:01,15.6304275,9.55e-05,53.2138,330.9146,96.0366,263.5479,-0.010017,-0.00849802,0.0,0 STARLINK-5421,1 54799U 22175AT  23054.58334491 -.00849802  00000-0 -10017-1 0  9995,2 54799  53.2138 330.9146 0000955  96.0366 263.5479 15.63042750 10407,6757.011,92.128,379.521,378.23,0.0
54799.0,STARLINK-5421,PAYLOAD,2023-02-23 22:00:00,15.62450315,0.0001104,53.214,329.2912,82.0315,353.9056,-0.011556,-0.00947842,0.0,0 STARLINK-5421,1 54799U 22175AT  23054.91667824 -.00947842  00000-0 -11556-1 0  9993,2 54799  53.2140 329.2912 0001104  82.0315 353.9056 15.62450315  1301,6758.719,92.163,381.33,379.837,0.0
54799.0,STARLINK-5421,PAYLOAD,2023-02-24 06:00:00,15.61789917,0.0001294,53.2138,327.6698,70.9833,80.5417,-0.011402,-0.00914617,0.0,0 STARLINK-5421,1 54799U 22175AT  23055.25001157 -.00914617  00000-0 -11402-1 0  9996,2 54799  53.2138 327.6698 0001294  70.9833  80.5417 15.61789917 10500,6760.624,92.202,383.364,381.614,0.0
54799.0,STARLINK-5421,PAYLOAD,2023-02-24 14:00:01,15.61088723,0.0001213,53.2138,326.0466,86.0332,140.3214,-0.010718,-0.00842978,0.0,0 STARLINK-5421,1 54799U 22175AT  23055.58334491 -.00842978  00000-0 -10718-1 0  9991,2 54799  53.2138 326.0466 0001213  86.0332 140.3214 15.61088723  1304,6762.648,92.243,385.333,383.693,0.0
54799.0,STARLINK-5421,PAYLOAD,2023-02-24 22:00:00,15.60487759,0.0001211,53.2137,324.4283,84.957,215.4086,-0.012238,-0.009315,0.0,0 STARLINK-5421,1 54799U 22175AT  23055.91667824 -.00931500  00000-0 -12238-1 0  9996,2 54799  53.2137 324.4283 0001211  84.9570 215.4086 15.60487759  1303,6764.384,92.279,387.068,385.43,0.0
54799.0,STARLINK-5421,PAYLOAD,2023-02-25 06:00:00,15.59837218,0.0001183,53.213,322.8114,71.3228,302.2814,-0.01234,-0.00917376,0.0,0 STARLINK-5421,1 54799U 22175AT  23056.25001157 -.00917376  00000-0 -12340-1 0  9994,2 54799  53.2130 322.8114 0001183  71.3228 302.2814 15.59837218 10669,6766.265,92.317,388.93,387.329,0.0
54799.0,STARLINK-5421,PAYLOAD,2023-02-25 14:00:01,15.59146974,0.0001203,53.2131,321.1931,84.976,1.1066,-0.011799,-0.0085957,0.0,0 STARLINK-5421,1 54799U 22175AT  23056.58334491 -.00859570  00000-0 -11799-1 0  9998,2 54799  53.2131 321.1931 0001203  84.9760   1.1066 15.59146974  1300,6768.262,92.358,390.941,389.312,0.0
54799.0,STARLINK-5421,PAYLOAD,2023-02-25 22:00:00,15.58523377,0.0001296,53.2131,319.5795,82.8877,74.8682,-0.012932,-0.00914556,0.0,0 STARLINK-5421,1 54799U 22175AT  23056.91667824 -.00914556  00000-0 -12932-1 0  9990,2 54799  53.2131 319.5795 0001296  82.8877  74.8682 15.58523377  1303,6770.067,92.395,392.809,391.055,0.0
54799.0,STARLINK-5421,PAYLOAD,2023-02-26 06:00:00,15.57886512,0.0001291,53.2129,317.9671,82.5736,146.0695,-0.01337,-0.00922177,0.0,0 STARLINK-5421,1 54799U 22175AT  23057.25001157 -.00922177  00000-0 -13370-1 0  9994,2 54799  53.2129 317.9671 0001291  82.5736 146.0695 15.57886512 10815,6771.912,92.433,394.651,392.903,0.0
54799.0,STARLINK-5421,PAYLOAD,2023-02-26 14:00:01,15.57193952,0.0001129,53.2132,316.3535,96.2355,202.5395,-0.012725,-0.00860698,0.0,0 STARLINK-5421,1 54799U 22175AT  23057.58334491 -.00860698  00000-0 -12725-1 0  9992,2 54799  53.2132 316.3535 0001129  96.2355 202.5395 15.57193952  1308,6773.92,92.474,396.549,395.02,0.0
54799.0,STARLINK-5421,PAYLOAD,2023-02-27 00:00:00,15.56398193,0.0001339,53.2134,314.343,78.8082,36.503,-0.013692,-0.00895521,0.0,0 STARLINK-5421,1 54799U 22175AT  23058.00001157 -.00895521  00000-0 -13692-1 0  9997,2 54799  53.2134 314.3430 0001339  78.8082  36.5030 15.56398193  1302,6776.228,92.521,399.001,397.186,0.0
54799.0,STARLINK-5421,PAYLOAD,2023-02-27 14:00:01,15.5524981,0.0001336,53.2134,311.528,101.0964,43.3256,-0.013916,-0.00874083,0.0,0 STARLINK-5421,1 54799U 22175AT  23058.58334491 -.00874083  00000-0 -13916-1 0  9999,2 54799  53.2134 311.5280 0001336 101.0964  43.3256 15.55249810 11025,6779.564,92.59,402.334,400.523,0.0
54799.0,STARLINK-5421,PAYLOAD,2023-02-27 22:00:01,15.54618731,0.0001353,53.2133,309.9243,98.2405,113.2263,-0.014958,-0.00913876,0.0,0 STARLINK-5421,1 54799U 22175AT  23058.91668981 -.00913876  00000-0 -14958-1 0  9991,2 54799  53.2133 309.9243 0001353  98.2405 113.2263 15.54618731  1306,6781.398,92.627,404.181,402.346,0.0
54799.0,STARLINK-5421,PAYLOAD,2023-02-28 06:00:00,15.53993796,0.0001184,53.2127,308.3208,98.0153,179.5792,-0.01592,-0.00960616,0.0,0 STARLINK-5421,1 54799U 22175AT  23059.25001157 -.00960616  00000-0 -15920-1 0  9999,2 54799  53.2127 308.3208 0001184  98.0153 179.5792 15.53993796 11133,6783.216,92.664,405.884,404.278,0.0
54799.0,STARLINK-5421,PAYLOAD,2023-02-28 14:00:01,15.53301078,0.0001069,53.2128,306.7169,108.0829,234.9475,-0.015054,-0.00879518,0.0,0 STARLINK-5421,1 54799U 22175AT  23059.58334491 -.00879518  00000-0 -15054-1 0  9993,2 54799  53.2128 306.7169 0001069 108.0829 234.9475 15.53301078  1304,6785.233,92.706,407.823,406.372,0.0
54799.0,STARLINK-5421,PAYLOAD,2023-02-28 22:00:00,15.52671601,0.0001068,53.2128,305.1181,86.3557,321.307,-0.01621,-0.00934244,0.0,0 STARLINK-5421,1 54799U 22175AT  23059.91667824 -.00934244  00000-0 -16210-1 0  9992,2 54799  53.2128 305.1181 0001068  86.3557 321.3070 15.52671601  1309,6787.066,92.743,409.656,408.207,0.0
54799.0,STARLINK-5421,PAYLOAD,2023-03-02 00:00:00,15.50463332,0.0001139,53.2132,299.9275,86.9444,255.4124,-0.013283,-0.00713258,0.0,0 STARLINK-5421,1 54799U 22175AT  23061.00001157 -.00713258  00000-0 -13283-1 0  9993,2 54799  53.2132 299.9275 0001139  86.9444 255.4124 15.50463332  1303,6793.509,92.875,416.148,414.601,0.0
54799.0,STARLINK-5421,PAYLOAD,2023-03-02 06:00:00,15.49966984,0.0001061,53.2131,298.7313,85.682,212.7038,-0.0021618,-0.00121609,0.0,0 STARLINK-5421,1 54799U 22175AT  23061.25001157 -.00121609  00000-0 -21618-2 0  9995,2 54799  53.2131 298.7313 0001061  85.6820 212.7038 15.49966984 11445,6794.96,92.905,417.546,416.104,0.0
54799.0,STARLINK-5421,PAYLOAD,2023-03-02 20:00:01,15.49907683,0.000112,53.2134,295.9431,87.8628,227.1576,-0.00092828,-0.00052823,0.0,0 STARLINK-5421,1 54799U 22175AT  23061.83334491 -.00052823  00000-0 -92828-3 0  9992,2 54799  53.2134 295.9431 0001120  87.8628 227.1576 15.49907683 11532,6795.133,92.909,417.759,416.237,0.0
54799.0,STARLINK-5421,PAYLOAD,2023-03-03 10:00:00,15.49885494,0.0001032,53.2134,293.1544,85.5204,246.1011,0.00017133,9.284e-05,0.0,0 STARLINK-5421,1 54799U 22175AT  23062.41667824  .00009284  00000-0  17133-3 0  9993,2 54799  53.2134 293.1544 0001032  85.5204 246.1011 15.49885494 11624,6795.198,92.91,417.764,416.361,0.0
54799.0,STARLINK-5421,PAYLOAD,2023-03-03 14:00:01,15.49887533,0.0001057,53.2132,292.3574,92.9427,89.1415,4.6021e-05,2.162e-05,0.0,0 STARLINK-5421,1 54799U 22175AT  23062.58334491  .00002162  00000-0  46021-4 0  9999,2 54799  53.2132 292.3574 0001057  92.9427  89.1415 15.49887533  1305,6795.192,92.91,417.775,416.339,0.0
54799.0,STARLINK-5421,PAYLOAD,2023-03-03 22:00:00,15.49881378,0.0001062,53.2132,290.7663,81.8336,161.1715,-0.00020334,-0.00011972,0.0,0 STARLINK-5421,1 54799U 22175AT  23062.91667824 -.00011972  00000-0 -20334-3 0  9994,2 54799  53.2132 290.7663 0001062  81.8336 161.1715 15.49881378  1303,6795.21,92.91,417.796,416.353,0.0
54799.0,STARLINK-5421,PAYLOAD,2023-03-04 06:00:00,15.49884822,9.07e-05,53.2128,289.1726,88.2529,215.6527,-3.7681e-05,-2.589e-05,0.0,0 STARLINK-5421,1 54799U 22175AT  23063.25001157 -.00002589  00000-0 -37681-4 0  9991,2 54799  53.2128 289.1726 0000907  88.2529 215.6527 15.49884822 11755,6795.2,92.91,417.681,416.448,0.0
54799.0,STARLINK-5421,PAYLOAD,2023-03-04 14:00:01,15.49878132,9.53e-05,53.2133,287.5783,106.1089,258.7086,0.00060113,0.00033805,0.0,0 STARLINK-5421,1 54799U 22175AT  23063.58334491  .00033805  00000-0  60113-3 0  9995,2 54799  53.2133 287.5783 0000953 106.1089 258.7086 15.49878132  1303,6795.219,92.911,417.732,416.437,0.0
54799.0,STARLINK-5421,PAYLOAD,2023-03-04 22:00:00,15.49897564,9.12e-05,53.2134,285.9871,95.9873,329.7523,-0.00073415,-0.00041913,0.0,0 STARLINK-5421,1 54799U 22175AT  23063.91667824 -.00041913  00000-0 -73415-3 0  9991,2 54799  53.2134 285.9871 0000912  95.9873 329.7523 15.49897564  1300,6795.162,92.909,417.647,416.408,0.0
54799.0,STARLINK-5421,PAYLOAD,2023-03-04 23:15:56,15.4989328,9.82e-05,53.2143,285.7346,102.2271,257.8849,4.8394e-05,2.297e-05,0.0,0 STARLINK-5421,1 54799U 22175AT  23063.96940504  .00002297  00000-0  48394-4 0  9994,2 54799  53.2143 285.7346 0000982 102.2271 257.8849 15.49893280 11861,6795.175,92.91,417.707,416.373,0.0
54799.0,STARLINK-5421,PAYLOAD,2023-03-05 20:55:56,15.49889166,9.12e-05,53.2143,281.4192,109.3915,250.7194,4.3004e-05,1.991e-05,0.0,0 STARLINK-5421,1 54799U 22175AT  23064.87218731  .00001991  00000-0  43004-4 0  9998,2 54799  53.2143 281.4192 0000912 109.3915 250.7194 15.49889166 12009,6795.187,92.91,417.672,416.432,0.0
54799.0,STARLINK-5421,PAYLOAD,2023-03-06 18:35:57,15.49875552,7.6e-05,53.2148,277.1016,122.0968,238.0116,4.5161e-05,2.112e-05,0.0,0 STARLINK-5421,1 54799U 22175AT  23065.77497684  .00002112  00000-0  45161-4 0  9996,2 54799  53.2148 277.1016 0000760 122.0968 238.0116 15.49875552 12144,6795.227,92.911,417.608,416.575,0.0
54799.0,STARLINK-5421,PAYLOAD,2023-03-06 20:08:49,15.49886942,6.95e-05,53.2158,276.7965,94.5301,265.5789,9.1365e-07,-3.99e-06,0.0,0 STARLINK-5421,1 54799U 22175AT  23065.83945958 -.00000399  00000-0  91365-6 0  9990,2 54799  53.2158 276.7965 0000695  94.5301 265.5789 15.49886942 14311,6795.194,92.91,417.531,416.586,0.0
